[{"OBJECT_NAME":"CHUTIAN-2 B","OBJECT_ID":"2025-256B","EPOCH":"2026-03-09T20:41:11.762016","MEAN_MOTION":14.50086658,"ECCENTRICITY":0.00126455,"INCLINATION":98.2627,"RA_OF_ASC_NODE":137.0927,"ARG_OF_PERICENTER":279.5668,"MEAN_ANOMALY":80.4098,"EPHEMERIS_TYPE":0,"CLASSIFICATION_TYPE":"U","NORAD_CAT_ID":66410,"ELEMENT_SET_NO":999,"REV_AT_EPOCH":1750,"BSTAR":0.00019761492,"MEAN_MOTION_DOT":7.23e-6,"MEAN_MOTION_DDOT":0},{"OBJECT_NAME":"CZ-6A DEB","OBJECT_ID":"2024-140YW","EPOCH":"2026-03-09T13:31:33.414816","MEAN_MOTION":14.4064462,"ECCENTRICITY":0.014283,"INCLINATION":88.9592,"RA_OF_ASC_NODE":281.4773,"ARG_OF_PERICENTER":358.9751,"MEAN_ANOMALY":1.1135,"EPHEMERIS_TYPE":0,"CLASSIFICATION_TYPE":"U","NORAD_CAT_ID":61429,"ELEMENT_SET_NO":999,"REV_AT_EPOCH":8110,"BSTAR":0.0011873,"MEAN_MOTION_DOT":4.29e-5,"MEAN_MOTION_DDOT":0}]
